ONEWEB-0678             
1 56714U 23068E   23304.92506920  .00000009  00000+0 -99808-5 0  9995
2 56714  87.8966  90.1261 0001344  99.7898 260.3384 13.15803403 23166
ONEWEB-0679             
1 56715U 23068F   23304.85331633  .00003249  00000+0  43864-3 0  9992
2 56715  86.7220  73.0700 0015493  15.7095 344.4603 14.78729742 24435
ONEWEB-0680             
1 56716U 23068G   23304.91668981 -.00997945  00000+0 -89401+0 0  9999
2 56716  87.4461  75.9724 0014663  28.0929 337.4160 13.87547114  5674
ONEWEB-0681             
1 56717U 23068H   23304.91668981 -.01020683  00000+0 -91094+0 0  9998
2 56717  87.4329  76.0893 0014860  28.8801 204.7580 13.87840601  5616
ONEWEB-0682             
1 56718U 23068J   23304.88315030  .00000010  00000+0 -71361-5 0  9990
2 56718  88.0998  90.0263 0001640  97.5183 262.6142 13.28745955 23293
ONEWEB-0683             
1 56719U 23068K   23304.87406407 -.00000032  00000+0 -99159-4 0  9998
2 56719  88.1024  90.0032 0001725 123.9945 236.1356 13.28500085 23266
ONEWEB-0684             
1 56720U 23068L   23304.90344254  .00001176  00000+0  31020-2 0  9994
2 56720  87.9023  90.2187 0001209 100.6466 259.4800 13.15261783 23126
ONEWEB-0686             
1 56721U 23068M   23304.88298054  .00003178  00000+0  43199-3 0  9993
2 56721  86.7198  73.0323 0014842  18.3599 341.8154 14.78441463 24435
